[{"OBJECT_NAME":"STARLINK-35027","OBJECT_ID":"2025-195J","EPOCH":"2025-12-02T05:54:50.502240","MEAN_MOTION":15.30217448,"ECCENTRICITY":0.00012646,"INCLINATION":53.1603,"RA_OF_ASC_NODE":350.8733,"ARG_OF_PERICENTER":89.3567,"MEAN_ANOMALY":270.7579,"EPHEMERIS_TYPE":0,"CLASSIFICATION_TYPE":"U","NORAD_CAT_ID":65466,"ELEMENT_SET_NO":999,"REV_AT_EPOCH":1507,"BSTAR":0.0013653288,"MEAN_MOTION_DOT":0.00040319,"MEAN_MOTION_DDOT":0},{"OBJECT_NAME":"STARLINK-34816","OBJECT_ID":"2025-195K","EPOCH":"2025-12-02T06:28:16.182336","MEAN_MOTION":15.30199351,"ECCENTRICITY":0.00011513,"INCLINATION":53.1597,"RA_OF_ASC_NODE":351.0125,"ARG_OF_PERICENTER":72.0118,"MEAN_ANOMALY":288.1008,"EPHEMERIS_TYPE":0,"CLASSIFICATION_TYPE":"U","NORAD_CAT_ID":65467,"ELEMENT_SET_NO":999,"REV_AT_EPOCH":1507,"BSTAR":0.00080105348,"MEAN_MOTION_DOT":0.0002344,"MEAN_MOTION_DDOT":0},{"OBJECT_NAME":"STARLINK-35033","OBJECT_ID":"2025-195L","EPOCH":"2025-12-02T06:38:44.595456","MEAN_MOTION":15.30203751,"ECCENTRICITY":0.00013956,"INCLINATION":53.1588,"RA_OF_ASC_NODE":350.3518,"ARG_OF_PERICENTER":116.1196,"MEAN_ANOMALY":243.9949,"EPHEMERIS_TYPE":0,"CLASSIFICATION_TYPE":"U","NORAD_CAT_ID":65468,"ELEMENT_SET_NO":999,"REV_AT_EPOCH":1508,"BSTAR":0.00073191186,"MEAN_MOTION_DOT":0.00021383,"MEAN_MOTION_DDOT":0},{"OBJECT_NAME":"STARLINK-34924","OBJECT_ID":"2025-195M","EPOCH":"2025-12-02T06:19:09.196032","MEAN_MOTION":15.30210246,"ECCENTRICITY":0.00011802,"INCLINATION":53.1586,"RA_OF_ASC_NODE":350.9792,"ARG_OF_PERICENTER":73.6667,"MEAN_ANOMALY":286.4464,"EPHEMERIS_TYPE":0,"CLASSIFICATION_TYPE":"U","NORAD_CAT_ID":65469,"ELEMENT_SET_NO":999,"REV_AT_EPOCH":1507,"BSTAR":0.00095173765,"MEAN_MOTION_DOT":0.00027944,"MEAN_MOTION_DDOT":0},{"OBJECT_NAME":"STARLINK-34829","OBJECT_ID":"2025-195N","EPOCH":"2025-12-02T05:21:24.670944","MEAN_MOTION":15.30223977,"ECCENTRICITY":0.00011395,"INCLINATION":53.159,"RA_OF_ASC_NODE":350.7307,"ARG_OF_PERICENTER":78.2865,"MEAN_ANOMALY":281.8263,"EPHEMERIS_TYPE":0,"CLASSIFICATION_TYPE":"U","NORAD_CAT_ID":65470,"ELEMENT_SET_NO":999,"REV_AT_EPOCH":1507,"BSTAR":0.0011674808,"MEAN_MOTION_DOT":0.00034404,"MEAN_MOTION_DDOT":0},{"OBJECT_NAME":"STARLINK-34888","OBJECT_ID":"2025-195P","EPOCH":"2025-12-02T05:51:47.991744","MEAN_MOTION":15.3020881,"ECCENTRICITY":8.306e-5,"INCLINATION":53.1602,"RA_OF_ASC_NODE":350.8569,"ARG_OF_PERICENTER":79.3607,"MEAN_ANOMALY":280.7487,"EPHEMERIS_TYPE":0,"CLASSIFICATION_TYPE":"U","NORAD_CAT_ID":65471,"ELEMENT_SET_NO":999,"REV_AT_EPOCH":1507,"BSTAR":0.0012896715,"MEAN_MOTION_DOT":0.00038043,"MEAN_MOTION_DDOT":0},{"OBJECT_NAME":"STARLINK-34799","OBJECT_ID":"2025-195Q","EPOCH":"2025-12-02T06:23:42.753984","MEAN_MOTION":15.30233946,"ECCENTRICITY":9.912e-5,"INCLINATION":53.1583,"RA_OF_ASC_NODE":350.9997,"ARG_OF_PERICENTER":72.8228,"MEAN_ANOMALY":287.2882,"EPHEMERIS_TYPE":0,"CLASSIFICATION_TYPE":"U","NORAD_CAT_ID":65472,"ELEMENT_SET_NO":999,"REV_AT_EPOCH":1505,"BSTAR":0.0012965546,"MEAN_MOTION_DOT":0.00038279,"MEAN_MOTION_DDOT":0},{"OBJECT_NAME":"STARLINK-34762","OBJECT_ID":"2025-195R","EPOCH":"2025-12-02T05:50:17.193120","MEAN_MOTION":15.30216243,"ECCENTRICITY":8.933e-5,"INCLINATION":53.1612,"RA_OF_ASC_NODE":350.8513,"ARG_OF_PERICENTER":97.3716,"MEAN_ANOMALY":262.7386,"EPHEMERIS_TYPE":0,"CLASSIFICATION_TYPE":"U","NORAD_CAT_ID":65473,"ELEMENT_SET_NO":999,"REV_AT_EPOCH":1505,"BSTAR":0.0012642407,"MEAN_MOTION_DOT":0.00037291,"MEAN_MOTION_DDOT":0},{"OBJECT_NAME":"STARLINK-34998","OBJECT_ID":"2025-195S","EPOCH":"2025-12-02T05:32:02.722848","MEAN_MOTION":15.30234471,"ECCENTRICITY":0.00012584,"INCLINATION":53.1606,"RA_OF_ASC_NODE":350.7719,"ARG_OF_PERICENTER":113.6372,"MEAN_ANOMALY":246.4761,"EPHEMERIS_TYPE":0,"CLASSIFICATION_TYPE":"U","NORAD_CAT_ID":65474,"ELEMENT_SET_NO":999,"REV_AT_EPOCH":1505,"BSTAR":0.0016004113,"MEAN_MOTION_DOT":0.00047394,"MEAN_MOTION_DDOT":0},{"OBJECT_NAME":"STARLINK-34832","OBJECT_ID":"2025-195T","EPOCH":"2025-12-02T06:03:57.523104","MEAN_MOTION":15.30208809,"ECCENTRICITY":0.00011291,"INCLINATION":53.1607,"RA_OF_ASC_NODE":350.9108,"ARG_OF_PERICENTER":83.5876,"MEAN_ANOMALY":276.5253,"EPHEMERIS_TYPE":0,"CLASSIFICATION_TYPE":"U","NORAD_CAT_ID":65475,"ELEMENT_SET_NO":999,"REV_AT_EPOCH":1505,"BSTAR":0.00054803524,"MEAN_MOTION_DOT":0.00015911,"MEAN_MOTION_DDOT":0},{"OBJECT_NAME":"STARLINK-35098","OBJECT_ID":"2025-195U","EPOCH":"2025-12-02T06:29:38.260608","MEAN_MOTION":15.30229942,"ECCENTRICITY":0.00014239,"INCLINATION":53.1591,"RA_OF_ASC_NODE":350.3118,"ARG_OF_PERICENTER":101.0212,"MEAN_ANOMALY":259.0949,"EPHEMERIS_TYPE":0,"CLASSIFICATION_TYPE":"U","NORAD_CAT_ID":65476,"ELEMENT_SET_NO":999,"REV_AT_EPOCH":1506,"BSTAR":0.00064882649,"MEAN_MOTION_DOT":0.00018924,"MEAN_MOTION_DDOT":0},{"OBJECT_NAME":"STARLINK-35071","OBJECT_ID":"2025-195V","EPOCH":"2025-12-02T06:10:02.181216","MEAN_MOTION":15.30211374,"ECCENTRICITY":9.559e-5,"INCLINATION":53.1586,"RA_OF_ASC_NODE":350.9341,"ARG_OF_PERICENTER":54.9012,"MEAN_ANOMALY":305.2078,"EPHEMERIS_TYPE":0,"CLASSIFICATION_TYPE":"U","NORAD_CAT_ID":65477,"ELEMENT_SET_NO":999,"REV_AT_EPOCH":1505,"BSTAR":0.00095420741,"MEAN_MOTION_DOT":0.00028018,"MEAN_MOTION_DDOT":0},{"OBJECT_NAME":"STARLINK-35093","OBJECT_ID":"2025-195W","EPOCH":"2025-12-02T05:29:00.508704","MEAN_MOTION":15.30228809,"ECCENTRICITY":0.00015027,"INCLINATION":53.1608,"RA_OF_ASC_NODE":350.7574,"ARG_OF_PERICENTER":95.3919,"MEAN_ANOMALY":264.7254,"EPHEMERIS_TYPE":0,"CLASSIFICATION_TYPE":"U","NORAD_CAT_ID":65478,"ELEMENT_SET_NO":999,"REV_AT_EPOCH":1505,"BSTAR":0.001308989,"MEAN_MOTION_DOT":0.00038646,"MEAN_MOTION_DDOT":0},{"OBJECT_NAME":"STARLINK-35096","OBJECT_ID":"2025-195X","EPOCH":"2025-12-02T06:41:46.973760","MEAN_MOTION":15.302022,"ECCENTRICITY":0.00010286,"INCLINATION":53.1579,"RA_OF_ASC_NODE":350.3607,"ARG_OF_PERICENTER":89.7964,"MEAN_ANOMALY":270.3155,"EPHEMERIS_TYPE":0,"CLASSIFICATION_TYPE":"U","NORAD_CAT_ID":65479,"ELEMENT_SET_NO":999,"REV_AT_EPOCH":1506,"BSTAR":0.00099133617,"MEAN_MOTION_DOT":0.00029118,"MEAN_MOTION_DDOT":0},{"OBJECT_NAME":"STARLINK-35040","OBJECT_ID":"2025-195Y","EPOCH":"2025-12-02T05:48:44.034912","MEAN_MOTION":15.30157415,"ECCENTRICITY":0.00013973,"INCLINATION":53.1601,"RA_OF_ASC_NODE":350.8173,"ARG_OF_PERICENTER":94.5333,"MEAN_ANOMALY":265.5828,"EPHEMERIS_TYPE":0,"CLASSIFICATION_TYPE":"U","NORAD_CAT_ID":65480,"ELEMENT_SET_NO":999,"REV_AT_EPOCH":1505,"BSTAR":0.00077693522,"MEAN_MOTION_DOT":0.00022691,"MEAN_MOTION_DDOT":0},{"OBJECT_NAME":"STARLINK-35042","OBJECT_ID":"2025-195Z","EPOCH":"2025-12-02T06:16:06.796992","MEAN_MOTION":15.3021042,"ECCENTRICITY":0.00011147,"INCLINATION":53.1598,"RA_OF_ASC_NODE":350.9617,"ARG_OF_PERICENTER":57.3506,"MEAN_ANOMALY":302.7602,"EPHEMERIS_TYPE":0,"CLASSIFICATION_TYPE":"U","NORAD_CAT_ID":65481,"ELEMENT_SET_NO":999,"REV_AT_EPOCH":1505,"BSTAR":0.00070107845,"MEAN_MOTION_DOT":0.00020469,"MEAN_MOTION_DDOT":0},{"OBJECT_NAME":"STARLINK-35038","OBJECT_ID":"2025-195AA","EPOCH":"2025-12-02T06:02:25.994400","MEAN_MOTION":15.30212612,"ECCENTRICITY":0.00010928,"INCLINATION":53.1601,"RA_OF_ASC_NODE":350.8787,"ARG_OF_PERICENTER":72.1057,"MEAN_ANOMALY":288.0063,"EPHEMERIS_TYPE":0,"CLASSIFICATION_TYPE":"U","NORAD_CAT_ID":65482,"ELEMENT_SET_NO":999,"REV_AT_EPOCH":1505,"BSTAR":0.0010440519,"MEAN_MOTION_DOT":0.00030702,"MEAN_MOTION_DDOT":0},{"OBJECT_NAME":"STARLINK-35037","OBJECT_ID":"2025-195AB","EPOCH":"2025-12-02T05:35:05.554752","MEAN_MOTION":15.30144593,"ECCENTRICITY":0.00015933,"INCLINATION":53.1631,"RA_OF_ASC_NODE":350.7585,"ARG_OF_PERICENTER":61.555,"MEAN_ANOMALY":298.5611,"EPHEMERIS_TYPE":0,"CLASSIFICATION_TYPE":"U","NORAD_CAT_ID":65483,"ELEMENT_SET_NO":999,"REV_AT_EPOCH":1505,"BSTAR":-0.0006383134,"MEAN_MOTION_DOT":-0.00019184,"MEAN_MOTION_DDOT":0},{"OBJECT_NAME":"STARLINK-35089","OBJECT_ID":"2025-195AC","EPOCH":"2025-12-02T06:26:44.556864","MEAN_MOTION":15.30234883,"ECCENTRICITY":6.176e-5,"INCLINATION":53.1582,"RA_OF_ASC_NODE":350.9826,"ARG_OF_PERICENTER":71.4167,"MEAN_ANOMALY":288.6901,"EPHEMERIS_TYPE":0,"CLASSIFICATION_TYPE":"U","NORAD_CAT_ID":65484,"ELEMENT_SET_NO":999,"REV_AT_EPOCH":1505,"BSTAR":0.00075241347,"MEAN_MOTION_DOT":0.00022015,"MEAN_MOTION_DDOT":0},{"OBJECT_NAME":"STARLINK-35143","OBJECT_ID":"2025-195AD","EPOCH":"2025-12-02T06:37:13.200672","MEAN_MOTION":15.3020326,"ECCENTRICITY":0.00013352,"INCLINATION":53.1595,"RA_OF_ASC_NODE":350.3196,"ARG_OF_PERICENTER":92.6853,"MEAN_ANOMALY":267.4301,"EPHEMERIS_TYPE":0,"CLASSIFICATION_TYPE":"U","NORAD_CAT_ID":65485,"ELEMENT_SET_NO":999,"REV_AT_EPOCH":1506,"BSTAR":0.00018309952,"MEAN_MOTION_DOT":5.068e-5,"MEAN_MOTION_DDOT":0},{"OBJECT_NAME":"STARLINK-35226","OBJECT_ID":"2025-198A","EPOCH":"2025-12-02T06:32:27.797280","MEAN_MOTION":15.39637871,"ECCENTRICITY":5.147e-5,"INCLINATION":53.1616,"RA_OF_ASC_NODE":7.8549,"ARG_OF_PERICENTER":120.9921,"MEAN_ANOMALY":239.1135,"EPHEMERIS_TYPE":0,"CLASSIFICATION_TYPE":"U","NORAD_CAT_ID":65492,"ELEMENT_SET_NO":999,"REV_AT_EPOCH":1364,"BSTAR":0.001308943,"MEAN_MOTION_DOT":0.00052348,"MEAN_MOTION_DDOT":0},{"OBJECT_NAME":"STARLINK-35242","OBJECT_ID":"2025-198B","EPOCH":"2025-12-02T05:45:47.583648","MEAN_MOTION":15.39606922,"ECCENTRICITY":0.00010833,"INCLINATION":53.1611,"RA_OF_ASC_NODE":8.3724,"ARG_OF_PERICENTER":72.4885,"MEAN_ANOMALY":287.6238,"EPHEMERIS_TYPE":0,"CLASSIFICATION_TYPE":"U","NORAD_CAT_ID":65493,"ELEMENT_SET_NO":999,"REV_AT_EPOCH":1363,"BSTAR":0.0015634793,"MEAN_MOTION_DOT":0.00062626,"MEAN_MOTION_DDOT":0},{"OBJECT_NAME":"STARLINK-35223","OBJECT_ID":"2025-198C","EPOCH":"2025-12-02T06:11:55.614912","MEAN_MOTION":15.39636029,"ECCENTRICITY":0.00010729,"INCLINATION":53.1597,"RA_OF_ASC_NODE":7.7716,"ARG_OF_PERICENTER":92.0294,"MEAN_ANOMALY":268.0834,"EPHEMERIS_TYPE":0,"CLASSIFICATION_TYPE":"U","NORAD_CAT_ID":65494,"ELEMENT_SET_NO":999,"REV_AT_EPOCH":1364,"BSTAR":0.00052213117,"MEAN_MOTION_DOT":0.00020552,"MEAN_MOTION_DDOT":0}]
